name,email,phone,parent_name,parent_email,parent_phone,grade,school_type,prev_cs,q1,q2,q3,q4,q5,s1,s2,s3,s4
Emero Cizut,Ciqu@gmail.com,393-573-8746,Ino Wuy,Huj@gmail.com,734-174-4718,10,charter,no,3,4,5,6,8,c4,c2,c2,c2
Cuw Tem,Lenuy@gmail.com,697-168-6149,Kud Kuh,Quw@gmail.com,369-989-6126,10,public,yes,8,5,3,6,4,c1,c1,c4,c3
Ijemap Oloxara,Sav@gmail.com,165-269-4185,Unut Mag,Piz@gmail.com,682-441-7612,10,CTE,yes,2,5,6,5,8,c4,c1,c2,c3
Cac Avus,Gay@gmail.com,492-729-6984,Gog Sej,Onec@gmail.com,424-793-5981,11,CTE,yes,2,3,0,1,6,c4,c3,c3,c4
Ehoqui Aquixic,Weg@gmail.com,996-926-6615,Udup Gusoyi,Efu@gmail.com,936-297-9465,11,CTE,yes,2,9,5,9,2,c2,c4,c3,c2
Rex Ebipo,Gur@gmail.com,893-696-8348,Evel Ilozog,Gar@gmail.com,838-153-4993,11,CTE,yes,4,7,7,7,6,c3,c1,c3,c1
Ibuqu Ubagedi,Kace@gmail.com,355-841-7238,Bid Joj,Yit@gmail.com,492-317-3358,11,charter,no,2,1,1,5,7,c2,c2,c1,c2
Ogalov Welalal,Gepe@gmail.com,637-499-6661,Wifi Hena,Hin@gmail.com,978-529-8194,10,private,no,2,2,9,9,4,c1,c2,c4,c1
Dif Ofiquhid,Pafex@gmail.com,952-863-1152,Ineyo Wew,Ugepa@gmail.com,895-218-7964,10,private,no,2,6,9,5,3,c3,c2,c4,c2
Oxa Guto,Fam@gmail.com,796-516-6283,Tinoc Iseravid,Laje@gmail.com,597-371-8831,10,charter,no,7,5,5,6,9,c1,c3,c1,c2
Opey Etagesek,Iji@gmail.com,657-784-8687,Ijidaj Feh,Cipug@gmail.com,898-751-4822,11,private,no,6,4,7,3,1,c1,c3,c1,c1
Vus Egokep,Ibes@gmail.com,719-584-2669,Eyud Juhoque,Aquat@gmail.com,552-252-7398,11,charter,no,4,2,8,3,3,c1,c3,c2,c4
Orujev Vanibi,Bik@gmail.com,489-275-1295,Odoho Upuf,Asoca@gmail.com,437-687-8742,10,public,yes,7,7,3,8,2,c1,c4,c3,c2
Gar Yaso,Bir@gmail.com,982-811-1477,Axu Romukej,Ebos@gmail.com,532-354-6218,10,private,yes,8,4,3,9,2,c3,c1,c4,c2
Uja Osijon,Uri@gmail.com,619-449-6597,Iru Vos,Ogeg@gmail.com,579-552-3259,10,private,no,7,4,4,2,3,c3,c2,c1,c1
Uquebac Atoqu,Oleyen@gmail.com,586-634-7619,Akak Liyec,Gili@gmail.com,457-975-1811,10,charter,yes,5,7,4,2,8,c3,c4,c4,c1
Afo Utonemi,Uba@gmail.com,744-221-3134,Lod Owijiqu,Osuj@gmail.com,251-461-3787,11,CTE,yes,5,1,8,3,8,c1,c3,c4,c1
Kog Iso,Rum@gmail.com,396-975-5526,Cax Dib,Opi@gmail.com,813-817-7866,11,public,yes,3,1,9,3,0,c2,c4,c1,c1
Ame Hahire,Nok@gmail.com,219-365-1118,Oxu Etikuj,Osub@gmail.com,665-768-4962,10,CTE,yes,4,0,1,0,4,c3,c1,c2,c1
Wow Ipifiye,Quoyih@gmail.com,335-389-4257,Bol Ohoxi,Jiwor@gmail.com,711-795-9932,11,CTE,no,5,3,9,3,9,c4,c2,c1,c3
Noqu Kibo,Oquo@gmail.com,832-114-3293,Zuwi Fat,Pim@gmail.com,424-126-7111,11,public,yes,4,9,5,9,9,c4,c2,c2,c1
Isu Ruf,Uhibu@gmail.com,954-892-6981,Etiw Bese,Iriyel@gmail.com,129-916-5997,10,public,no,4,2,2,8,5,c4,c3,c3,c2
Ihepon Ujah,Eve@gmail.com,612-866-5253,Foh Ufozebib,Oguqued@gmail.com,398-669-1521,11,CTE,no,7,8,3,5,2,c2,c4,c1,c2
Siqu Otofi,Alaba@gmail.com,678-632-2224,Gaqu Uziqu,Ram@gmail.com,826-573-8827,10,private,yes,9,2,6,7,2,c3,c3,c3,c3
Ragan Umoju,Guy@gmail.com,152-562-4711,Orar Yun,Edi@gmail.com,724-292-6448,11,private,yes,2,9,0,8,7,c4,c4,c1,c3
Umipe Nivu,Ebayo@gmail.com,897-495-8725,Cah Isu,Jup@gmail.com,784-814-8746,11,charter,no,2,4,7,3,5,c3,c3,c3,c4
Juh Ovobiwav,Odi@gmail.com,642-414-5737,Cit Orevo,Xek@gmail.com,893-299-4621,10,private,yes,6,4,9,5,0,c4,c1,c3,c2
Eluc Ezolinam,Ukop@gmail.com,582-387-6657,Miy Inapukag,Not@gmail.com,683-876-5486,10,CTE,no,8,1,3,3,7,c3,c2,c4,c2
Ebuwi Cor,Bak@gmail.com,474-873-4646,Mez Xove,Xoxe@gmail.com,662-596-1772,11,CTE,yes,3,6,8,2,8,c1,c4,c1,c2
Tax Kasosom,Iyifo@gmail.com,532-296-1482,Ehel Ezemi,Itawid@gmail.com,952-372-5326,11,public,no,3,3,2,3,7,c2,c2,c4,c3
Ome Okah,Ogoc@gmail.com,777-114-4922,Mox Emeye,Met@gmail.com,976-538-6841,10,CTE,no,2,8,8,5,7,c2,c2,c1,c1
Ihe Oti,Ozak@gmail.com,675-869-8233,Wun Libu,Olik@gmail.com,458-331-1399,11,CTE,yes,8,0,5,3,8,c2,c2,c3,c3
Ivo Egividuw,Sije@gmail.com,113-729-7699,Eci Caf,Eko@gmail.com,311-973-2275,11,public,yes,0,3,9,2,4,c4,c4,c1,c3
Bejom Igik,Azo@gmail.com,644-841-9371,Zan Xegun,Xam@gmail.com,219-312-7551,10,CTE,yes,1,1,0,5,0,c3,c3,c3,c1
Kep Aves,Ciqu@gmail.com,432-215-5928,Aniju Ovenequoj,Haqu@gmail.com,267-444-9526,11,CTE,no,2,9,3,7,3,c1,c2,c3,c4
Acut Aduwovez,Kip@gmail.com,477-247-7428,Lut Ovatenig,Anu@gmail.com,423-533-6363,10,charter,no,7,8,5,9,5,c2,c1,c4,c1
Fah Zirecen,Mup@gmail.com,856-228-2782,Ebo Ujulaf,Quk@gmail.com,633-112-7612,11,public,yes,2,8,6,4,8,c3,c3,c4,c4
Fic Icunig,Sos@gmail.com,414-677-7868,Uteya Socar,Sugi@gmail.com,579-825-3335,11,CTE,yes,8,6,0,4,9,c1,c1,c2,c3
Epub Egova,Fok@gmail.com,222-588-9496,Job Ofaque,Esu@gmail.com,735-649-5321,11,public,yes,9,7,0,9,3,c2,c1,c4,c4
Got Pomi,Exohim@gmail.com,952-425-8523,Ufugaqu Bojuh,Egagu@gmail.com,389-428-5238,10,public,yes,0,1,3,0,3,c2,c1,c1,c2
Fek Lecin,Mov@gmail.com,511-656-6486,Cem Gihugev,Diy@gmail.com,776-839-7859,10,public,no,5,9,7,4,0,c3,c1,c4,c2
Wehar Yulu,Ruk@gmail.com,256-452-2386,Juv Utemoz,Koy@gmail.com,474-798-9978,11,public,yes,1,4,0,6,8,c1,c4,c1,c2
Ino Soyo,Sis@gmail.com,537-674-5372,Urucew Ifuroded,Pij@gmail.com,913-717-5437,11,charter,no,1,3,8,5,7,c1,c3,c1,c1
Oque Azug,Rup@gmail.com,813-774-6648,Oji Have,Ixu@gmail.com,542-372-1114,10,charter,no,7,4,1,5,7,c2,c4,c1,c4
Zep Jizez,Ova@gmail.com,188-933-6832,Osej Soxuqu,Tul@gmail.com,643-596-2954,10,charter,no,4,6,4,2,8,c1,c1,c3,c4
Cap Cukipi,Ako@gmail.com,159-248-9125,Wis Jebo,Apile@gmail.com,764-931-4463,11,private,yes,1,9,9,6,9,c4,c1,c1,c2
Quil Yami,Xur@gmail.com,931-124-3756,Aro Pav,Samu@gmail.com,646-678-7776,11,charter,yes,0,1,2,9,4,c3,c1,c4,c2
Pow Uluru,Ewoge@gmail.com,765-971-7777,Sac Dirah,Hoj@gmail.com,896-852-4821,11,CTE,yes,5,3,3,8,0,c1,c3,c3,c2
Day Rohiqu,Iwu@gmail.com,254-168-3882,Ucop Eyupor,Aquito@gmail.com,761-346-9312,11,charter,no,9,1,3,2,2,c3,c2,c4,c2
Ebeno Poha,Jeh@gmail.com,234-566-7539,Cuted Kebo,Iyi@gmail.com,721-474-6627,11,public,no,1,9,3,5,5,c1,c2,c2,c1
Ajewik Quir,Yivid@gmail.com,179-387-7361,Gig Aro,Fin@gmail.com,611-788-6369,11,private,yes,5,3,3,0,0,c4,c3,c4,c3
Epew Som,Ehasa@gmail.com,163-591-3128,Vow Aza,Sag@gmail.com,228-895-7768,11,charter,no,2,2,3,5,4,c1,c2,c2,c2
Equib Owek,Raw@gmail.com,835-153-3635,Ice Wuguw,Isip@gmail.com,856-954-2428,11,CTE,yes,6,6,2,0,1,c3,c2,c2,c4
Rag Ewakon,Ozo@gmail.com,419-199-3639,Liv Ewa,Efu@gmail.com,566-212-7723,11,CTE,no,8,0,3,0,1,c2,c4,c4,c4
Kav But,Uyi@gmail.com,624-273-7787,Icaf Ubilu,Vih@gmail.com,521-771-6663,11,CTE,yes,6,3,9,1,5,c4,c2,c1,c4
Ipiyi Uquiquezo,Elip@gmail.com,581-925-8949,Oda Yoyek,Xam@gmail.com,916-168-8489,11,public,no,0,6,3,6,8,c2,c3,c1,c4
Ohe Wif,Yof@gmail.com,195-918-2338,Ohoc Unehu,Hawu@gmail.com,629-766-4716,10,charter,yes,3,7,5,3,3,c2,c3,c4,c3
Asul Oqueweb,Wek@gmail.com,968-524-2735,Tukoj Exuwi,Gad@gmail.com,883-417-6651,10,private,yes,4,7,3,2,3,c4,c3,c3,c2
Urexo Queli,Akur@gmail.com,462-341-4964,Uxo Bayomav,Ziki@gmail.com,523-979-5459,11,charter,yes,8,6,7,8,3,c2,c3,c3,c4
Ijew Uji,Ucov@gmail.com,357-155-2542,Oxiv Muyi,Yip@gmail.com,245-793-6216,11,charter,yes,5,3,6,0,7,c3,c3,c1,c4
Unap Uvazu,Nop@gmail.com,379-141-6698,Inaz Eyuz,Zac@gmail.com,672-216-9276,10,charter,no,6,4,7,9,7,c4,c1,c1,c1
Quih Ijezume,Ozu@gmail.com,312-676-2293,Sub Uhavu,Isa@gmail.com,988-787-2756,10,public,yes,5,2,3,8,4,c4,c2,c1,c3
Let Isole,Nas@gmail.com,264-849-3232,Voz Alokul,Fam@gmail.com,455-142-2432,11,public,no,4,5,8,0,5,c4,c1,c2,c2
Fan Nejomih,Uxab@gmail.com,435-346-4183,Wut Adise,Afa@gmail.com,289-446-4946,11,public,no,0,3,3,9,8,c1,c2,c4,c1
Oxola Ojuv,Mak@gmail.com,139-138-3959,Bin Nita,Uque@gmail.com,521-759-9324,10,charter,yes,2,4,8,2,0,c1,c3,c4,c4
Exuc Evu,Cet@gmail.com,583-719-7259,Moz Doka,Mij@gmail.com,128-575-5579,10,charter,yes,1,4,2,9,1,c2,c3,c1,c4
Zege Celu,Aget@gmail.com,351-534-6255,Cug Disodu,Miv@gmail.com,792-986-9277,11,public,no,5,8,4,7,2,c3,c4,c4,c1
Edu Abog,Ifa@gmail.com,883-346-4352,Aze Ofi,Ajigof@gmail.com,589-229-1271,11,private,no,7,5,9,8,1,c3,c2,c3,c3
Hat Diloxak,Bam@gmail.com,738-859-6616,Suf Adaco,Zuk@gmail.com,369-411-3564,11,charter,no,7,3,8,7,9,c2,c2,c2,c3
Edub Imoge,Umav@gmail.com,691-435-5352,Lit Bogu,Xep@gmail.com,992-929-7751,11,charter,no,6,4,1,5,6,c4,c4,c3,c4
Oba Nucisit,Iquoqu@gmail.com,662-299-9561,Wef Apaquiv,Eze@gmail.com,151-315-2543,10,CTE,yes,5,9,7,6,2,c1,c1,c3,c4
Uzej Ezamiw,Mak@gmail.com,513-699-8861,Olir Epiyi,Fup@gmail.com,312-844-3624,11,CTE,yes,3,9,5,3,0,c2,c1,c1,c3
Fus Efiju,Ola@gmail.com,347-776-4681,Ozixaz Lebi,Ifi@gmail.com,157-848-5466,10,CTE,no,4,7,1,3,8,c1,c2,c4,c2
Ile Piro,Yeh@gmail.com,736-269-6875,Kul Ulanir,Gox@gmail.com,113-225-4493,11,charter,yes,8,7,9,8,5,c4,c1,c3,c4
Vek Alohaj,Oqua@gmail.com,145-438-2168,Pihi Miqu,Soha@gmail.com,545-497-9558,10,charter,no,6,5,6,0,7,c4,c2,c3,c1
Ituka Wepavaw,Equeh@gmail.com,373-372-9323,Qug Ehom,Kag@gmail.com,946-393-5335,11,private,no,3,6,6,4,4,c3,c3,c2,c1
Equini Lugumug,Obut@gmail.com,498-553-1628,Dir Uyone,Enup@gmail.com,588-949-7728,10,public,yes,6,9,3,5,1,c4,c3,c2,c4
Udi Ededig,Umi@gmail.com,151-577-8876,Got Ibalek,Ofoy@gmail.com,789-168-7955,10,public,no,3,6,9,6,0,c1,c1,c4,c2
Agijo Iwala,Ikew@gmail.com,624-639-6913,Azadiqu Foda,Des@gmail.com,214-549-6118,10,public,no,8,1,7,4,0,c1,c1,c2,c4
Vug Foyuc,Orayim@gmail.com,723-698-7163,Api Nuhe,Ibo@gmail.com,615-467-1474,11,charter,yes,6,7,0,4,5,c1,c2,c1,c1
Upe Agu,Oja@gmail.com,538-684-3567,Liw Vog,Rur@gmail.com,246-935-8792,10,private,no,7,2,3,1,9,c2,c1,c2,c4
Riz Zicu,Axos@gmail.com,385-119-7812,Ile Efideteg,Gic@gmail.com,161-981-3872,10,charter,no,4,7,0,1,6,c3,c1,c2,c2
Ufah Izute,Ikuco@gmail.com,894-328-6949,Akij Unav,Epileh@gmail.com,235-572-7221,11,public,no,5,7,1,0,7,c4,c2,c3,c2
Cet Teh,Top@gmail.com,443-884-2632,Afa Guxikag,Wut@gmail.com,913-561-6845,10,CTE,no,5,6,4,9,4,c2,c1,c4,c2
Jep Yapani,Ove@gmail.com,893-833-1281,Efo Ogorev,Jus@gmail.com,678-336-5196,11,public,no,9,4,6,1,7,c4,c4,c3,c2
Akixo Exa,Ucaz@gmail.com,867-897-4458,Uyuh Wahi,Epad@gmail.com,895-436-3622,10,private,no,7,4,9,9,0,c4,c3,c3,c3
Jet Fula,Ajo@gmail.com,656-862-4634,Rot Cisah,Tut@gmail.com,911-199-3842,11,CTE,no,7,9,8,6,7,c1,c2,c3,c4
Iza Iqueluxi,Aquequ@gmail.com,716-473-3259,Woc Ced,Yel@gmail.com,693-123-9214,10,charter,no,2,8,3,8,5,c4,c2,c2,c3
Ebarog Janad,Ibo@gmail.com,484-392-9674,Oquot Lele,Nef@gmail.com,315-466-7117,11,charter,no,5,7,1,9,0,c1,c4,c4,c4
Husa Pupic,Apehok@gmail.com,738-959-6323,Jos Menil,Jat@gmail.com,233-995-8916,10,CTE,yes,3,8,0,3,6,c3,c3,c4,c3
Vef Uhodupo,Ife@gmail.com,885-643-6961,Cuj Noha,Ojupat@gmail.com,488-858-5178,11,charter,yes,4,2,8,1,5,c3,c2,c3,c3
Akavod Ujixasu,Imequ@gmail.com,738-214-4736,Nixe Kuyi,Oyen@gmail.com,899-759-1287,11,public,no,7,7,0,3,1,c4,c2,c1,c1
Pef Ekipov,Jez@gmail.com,872-794-6624,Ela Tuboz,Exayaj@gmail.com,555-341-2179,11,charter,no,2,5,6,0,5,c1,c1,c4,c1
Cihav Azayuwox,Kug@gmail.com,673-267-4411,Ucu Agijoj,Iwe@gmail.com,899-445-9118,11,public,yes,3,4,9,0,0,c1,c1,c1,c3
Xuv Icaval,Caw@gmail.com,728-497-9762,Sap Duqua,Luyom@gmail.com,385-625-4898,10,private,yes,9,5,1,1,2,c2,c3,c3,c3
Ocu Oxay,Vakig@gmail.com,625-794-3469,Ned Huxu,Efa@gmail.com,764-846-3568,10,private,yes,9,9,2,8,3,c4,c2,c2,c1
Ovav Fibaz,Umic@gmail.com,968-887-4261,Nel Paguhu,Tax@gmail.com,378-888-7171,10,charter,no,8,1,4,9,1,c1,c2,c1,c2
Uzom Girul,Oga@gmail.com,162-675-3432,Osis Urawoho,Ikol@gmail.com,143-756-2115,10,public,no,6,2,6,1,1,c2,c4,c3,c1
Zuz Zeva,Ejah@gmail.com,491-264-5551,Akek Ozalo,Ovi@gmail.com,115-439-7754,10,CTE,no,6,1,1,7,0,c2,c2,c2,c2
Wuh Ciwu,Anob@gmail.com,816-779-6377,Ned Tukih,Kuy@gmail.com,427-337-2271,10,charter,yes,5,6,7,0,2,c3,c1,c1,c2
Uwojo Aguwuva,Mab@gmail.com,237-161-8251,Ukig Nehusos,Gem@gmail.com,165-843-7298,10,CTE,no,7,1,2,3,9,c3,c2,c4,c2
Jof Icumi,Hot@gmail.com,781-399-5528,Eva Uhicahav,Xos@gmail.com,917-336-6888,10,public,yes,3,9,3,2,3,c2,c2,c3,c1
Equali Uhetis,Ley@gmail.com,473-953-1437,Ezefu Fuhu,Emav@gmail.com,382-176-2139,10,charter,no,7,1,3,3,1,c3,c4,c1,c3
Puxo Came,Ciw@gmail.com,915-322-4869,Roza Henam,Eyu@gmail.com,935-178-4422,11,public,yes,6,7,6,0,9,c3,c3,c3,c4
Ihim Uved,Guv@gmail.com,412-815-4978,Xad Hen,Igit@gmail.com,522-186-7341,10,private,no,8,9,3,6,7,c1,c4,c2,c3
Hiz Ivo,Ece@gmail.com,363-449-3467,Eli Yaguzev,Ret@gmail.com,235-731-9961,10,CTE,no,8,5,6,6,5,c1,c2,c1,c2
Enu Ibikecu,Canuc@gmail.com,682-295-7538,Ite Wemuh,Hif@gmail.com,234-247-6272,11,public,yes,1,2,3,0,5,c2,c1,c4,c4
Xik Igobo,Asas@gmail.com,449-189-9117,Equiw Namayoc,Uxod@gmail.com,521-175-2134,11,private,no,8,3,7,6,8,c4,c1,c4,c3
Macuj Ajumot,Hol@gmail.com,266-636-3663,Ivuj Emop,Ixob@gmail.com,124-466-5732,11,private,yes,8,0,7,0,5,c4,c3,c4,c3
Ebux Apepir,Orig@gmail.com,753-729-4515,Uhi Ajo,Nat@gmail.com,279-782-6595,11,charter,yes,5,0,1,7,6,c1,c1,c4,c4
Tub Oko,Ramov@gmail.com,874-532-6885,Mexep Adako,Ada@gmail.com,664-988-2672,10,charter,yes,6,8,3,2,1,c2,c4,c1,c1
Ojog Xod,Ziku@gmail.com,573-429-1421,Apeyu Otoje,Upohos@gmail.com,474-361-3115,10,CTE,no,0,2,9,1,8,c4,c4,c4,c1
Tec Pine,Ekuy@gmail.com,679-628-9998,Dor Zexu,Ros@gmail.com,844-944-1439,10,private,no,4,5,7,3,6,c1,c3,c2,c1
Ara Uzeyun,Anas@gmail.com,315-339-4921,Reh Enudupe,Aka@gmail.com,392-673-7253,10,public,no,9,8,1,3,6,c3,c4,c1,c1
Bod Gugiw,Evo@gmail.com,292-958-8433,Ogeb Darut,Aquis@gmail.com,395-251-6144,10,private,yes,0,3,3,8,5,c4,c4,c4,c3
Ateb Epuc,Ene@gmail.com,674-657-4615,Lah Noma,Elav@gmail.com,285-842-2994,11,charter,no,0,3,3,7,5,c4,c4,c3,c2
Oji Dilip,Zode@gmail.com,611-597-1693,Nega Buquefu,Surej@gmail.com,457-572-9538,11,CTE,yes,8,5,4,5,5,c3,c1,c1,c2
Uyi Cep,Ugav@gmail.com,178-134-6118,Owe Dewafay,Ivov@gmail.com,436-771-3716,11,public,yes,0,4,0,7,5,c1,c2,c1,c1
Sawat Edawiw,San@gmail.com,931-286-7444,Ezez Lara,Awamuj@gmail.com,547-798-6422,10,CTE,no,8,7,9,0,7,c3,c3,c3,c2
Eyuse Equoyec,Kaxuj@gmail.com,539-628-1392,Arip Inawaw,Neb@gmail.com,878-898-8557,10,public,no,3,3,7,0,5,c3,c4,c2,c2
Pez Asixes,Uhe@gmail.com,115-125-8214,Zij Oliz,Uxe@gmail.com,311-299-4351,11,public,no,7,6,9,6,2,c1,c3,c1,c4
Ogib Awajo,Ozo@gmail.com,227-854-1174,Tah Evapuv,Uho@gmail.com,955-876-1121,11,public,no,9,0,1,3,6,c2,c1,c4,c4
Ora Libah,Odefij@gmail.com,612-827-6377,Iwuhi Uceza,Uco@gmail.com,552-515-5714,11,private,yes,7,3,4,1,5,c2,c4,c4,c2
Avo Sub,Amaqu@gmail.com,963-963-5862,Bemej Jeka,Oque@gmail.com,461-922-4539,11,private,no,8,8,6,6,8,c2,c1,c2,c2
Cul Bav,Quor@gmail.com,775-277-5527,Acuqu Dehikaqu,Zew@gmail.com,193-137-3583,11,CTE,yes,8,7,6,3,4,c1,c4,c3,c1
Ava Bigel,Odaf@gmail.com,941-313-7989,Fix Zov,Zev@gmail.com,987-738-8637,11,CTE,no,9,2,7,1,9,c3,c4,c4,c4
Gow Oliyab,Ulerig@gmail.com,919-626-3776,Igayo Zifa,Gob@gmail.com,777-138-4332,10,CTE,yes,0,8,6,6,0,c2,c2,c3,c4
Kiy Owahop,Kit@gmail.com,164-771-2792,Bej Xoquiyej,Kox@gmail.com,974-659-4143,10,charter,no,5,1,5,9,1,c1,c2,c1,c3
Asa Laquo,Kec@gmail.com,224-762-3352,Joj Ocones,Oza@gmail.com,975-984-8861,11,charter,no,6,9,1,2,6,c1,c2,c2,c3
Ezu Cimihod,Podu@gmail.com,164-773-9951,Moy Etuhal,Civ@gmail.com,242-626-4666,11,charter,no,5,0,9,6,6,c1,c2,c3,c4
Cej Opijut,Oxap@gmail.com,697-273-6115,Omop Pili,Quex@gmail.com,572-523-2742,11,CTE,no,6,3,3,8,7,c3,c4,c4,c2
Upig Tetim,Riw@gmail.com,764-525-2276,Eroyiw Hubeva,Taha@gmail.com,851-765-6266,11,charter,yes,6,9,2,5,1,c4,c4,c4,c2
Noz Ubemif,Equ@gmail.com,717-315-5959,Lebot Melewo,Ugib@gmail.com,987-237-6388,10,charter,yes,0,6,5,8,2,c1,c2,c4,c2
Ewo Hasa,Ros@gmail.com,436-541-4168,Afeb Evojac,Eyaqu@gmail.com,656-717-1893,10,charter,yes,0,1,8,0,6,c1,c1,c1,c3
Cis Edopoti,Lod@gmail.com,934-626-3572,Pujos Agi,Owev@gmail.com,585-352-8823,10,CTE,no,9,3,2,1,7,c1,c3,c2,c2
Emoyo Dew,Uyig@gmail.com,974-174-9182,Ajugil Oxubog,Vuqu@gmail.com,498-296-3635,11,public,yes,9,9,2,2,1,c3,c3,c4,c1
Nuk Niwasap,Deh@gmail.com,912-855-9587,Ahepon Demaza,Quaqu@gmail.com,885-724-6374,10,charter,no,6,1,6,5,1,c4,c2,c3,c2
Ewuh Ritujiy,Amo@gmail.com,752-798-5154,Maqu Secuy,Kat@gmail.com,634-413-1943,11,private,yes,1,6,7,0,1,c4,c1,c4,c1
Nav Kuc,Editu@gmail.com,667-411-8953,Saj Utatop,Xequ@gmail.com,193-665-7337,11,charter,no,8,3,9,1,6,c1,c4,c4,c4
Ayu Oweyudo,Owu@gmail.com,732-114-7879,Umahe Pezig,Ige@gmail.com,666-271-5285,11,CTE,yes,1,9,1,1,0,c3,c1,c2,c3
Quapob Lijil,Efiwe@gmail.com,851-172-8311,Ifiwox Vawu,Fonov@gmail.com,494-762-3945,10,public,yes,8,3,4,6,2,c2,c4,c3,c3
Ziba Xuxi,Led@gmail.com,291-789-2453,Inocar Buxaj,Erut@gmail.com,557-524-9624,10,private,no,3,8,0,1,1,c4,c2,c2,c1
Evuve Onajum,Afumuj@gmail.com,163-975-4994,Iye Gecud,Eru@gmail.com,718-282-6547,11,charter,yes,1,3,0,7,3,c3,c3,c1,c3
Nequi Imakinor,Gecu@gmail.com,728-372-7858,Dom Osegic,Tod@gmail.com,711-646-5827,11,CTE,no,6,8,5,7,2,c1,c2,c1,c3
Une Hawan,Ewod@gmail.com,188-861-4565,Isifu Awoze,Box@gmail.com,933-597-9641,11,charter,no,1,5,5,2,4,c4,c1,c3,c3
Udaxup Udegox,Aquove@gmail.com,499-197-5643,Axus Ituc,Tiy@gmail.com,916-869-2378,11,CTE,no,8,1,9,3,8,c2,c4,c1,c4
Aze Fuzu,Lew@gmail.com,482-214-7118,Xab Yiyogo,Wunequ@gmail.com,829-196-6443,11,charter,no,1,6,0,3,8,c4,c3,c1,c2
Pip Ruyu,Puf@gmail.com,572-139-6578,Ziquav Nuque,Umez@gmail.com,327-771-4884,10,CTE,yes,4,6,8,4,1,c2,c4,c2,c3
Iyo Ola,Veca@gmail.com,983-172-1794,Pecoj Amotak,Deg@gmail.com,739-992-9791,10,private,yes,3,1,0,0,5,c3,c4,c2,c1
Ahik Reci,Pef@gmail.com,648-312-1281,Yay Oxebu,Ihawox@gmail.com,797-986-6625,10,public,no,6,0,8,7,6,c3,c4,c1,c3
Hil Ecuv,Lox@gmail.com,386-918-5719,Goz Aru,Ugi@gmail.com,273-144-5795,10,CTE,yes,4,3,0,2,8,c3,c1,c4,c2
Uvun Ucu,Vuv@gmail.com,625-299-8614,Omiv Rep,Pivi@gmail.com,947-348-1846,10,charter,no,1,8,4,8,1,c4,c3,c3,c1
Kejat Dihobex,Ote@gmail.com,278-462-9814,Ewu Ipure,Uye@gmail.com,871-283-5293,11,charter,no,8,7,6,5,1,c2,c4,c3,c1
Iyad Axe,Fik@gmail.com,927-664-8634,Ose Anoquif,Zuqu@gmail.com,343-983-3168,11,public,yes,0,5,5,5,6,c4,c2,c3,c1
Afij Asula,Ici@gmail.com,112-374-4526,Uliy Miritu,Dera@gmail.com,457-233-3728,10,public,yes,0,6,6,1,3,c1,c2,c2,c3
Siqu Onisa,Far@gmail.com,664-135-5771,Haz Upezato,Eci@gmail.com,296-785-2491,10,private,yes,0,5,0,8,6,c2,c3,c1,c1
Hej Tayuno,Ila@gmail.com,344-243-8948,Deko Epayuv,Kon@gmail.com,686-116-4692,10,charter,no,5,9,3,3,2,c2,c3,c2,c1
Oze Iluwo,Izi@gmail.com,718-677-6961,Oxahu Ivomiw,Fit@gmail.com,668-696-9747,10,private,yes,7,9,5,4,7,c4,c3,c2,c3
Niv Uxor,Jed@gmail.com,216-565-8886,Umofix Egiz,Uzuya@gmail.com,719-611-5184,11,charter,no,7,4,1,3,2,c4,c1,c2,c4
Ihow Awohe,Axilu@gmail.com,458-575-3277,Ebe Fuga,Quoqu@gmail.com,297-876-3291,11,CTE,no,5,8,4,2,2,c3,c2,c1,c4
Ayil Yugez,Iwi@gmail.com,986-525-8792,Ecum Zupoti,Onuqu@gmail.com,381-326-6257,10,charter,yes,1,5,1,2,7,c1,c1,c2,c3
Osot Etoyoway,Bon@gmail.com,249-786-6955,Rud Zodu,Ajad@gmail.com,325-688-7394,10,private,no,8,5,5,5,5,c3,c2,c2,c3
Jut Rik,Uquif@gmail.com,932-283-5944,Yid Azo,Ove@gmail.com,717-996-2112,11,CTE,yes,2,5,2,8,4,c1,c1,c2,c3
Odiye Fijixij,Gakot@gmail.com,447-884-2589,Xuh Naxu,Rog@gmail.com,522-834-6798,11,charter,no,8,7,0,5,4,c4,c4,c4,c3
Zep Yeyi,Bor@gmail.com,589-186-7848,Biw Ojukev,Rowic@gmail.com,255-146-6699,10,public,yes,9,3,6,0,9,c2,c3,c2,c1
Omu Gabis,Obeb@gmail.com,174-916-2638,Ujuco Egike,Ucu@gmail.com,153-948-3642,10,private,yes,4,4,8,5,9,c1,c4,c4,c2
Eviqud Ukafup,Amoc@gmail.com,192-136-2395,Quoduj Faquahoz,Eheb@gmail.com,134-666-1291,11,CTE,no,3,9,8,1,0,c4,c4,c1,c2
Ugogur Ixife,Tuh@gmail.com,859-815-3894,Edep Baji,Meki@gmail.com,879-487-5932,10,CTE,yes,9,6,8,0,9,c2,c2,c3,c2
Xis Iyo,Eji@gmail.com,564-787-8368,Rom Ojufi,Hev@gmail.com,155-798-4148,10,charter,no,2,9,6,1,0,c4,c1,c4,c2
Esojol Neve,Zop@gmail.com,223-227-8264,Ani Iyohef,Uxaqua@gmail.com,951-758-1111,11,CTE,no,5,7,7,4,8,c3,c1,c4,c2
Ehe Luj,Icon@gmail.com,361-524-4414,Vek Yifat,Ahi@gmail.com,673-458-6782,10,CTE,yes,5,6,0,7,4,c4,c4,c3,c2
Oloj Zaw,Akenox@gmail.com,769-552-3221,Aho Anocin,Sap@gmail.com,969-257-3517,11,private,yes,1,4,5,0,2,c2,c1,c1,c1
Wuf Mude,Xuyo@gmail.com,747-872-6136,Ada Asene,Wog@gmail.com,153-129-1799,11,CTE,no,1,6,0,9,1,c2,c2,c1,c1
Ivi Xoru,Hih@gmail.com,953-356-2969,Inax Teze,Bid@gmail.com,532-913-1974,10,CTE,no,2,6,2,4,4,c2,c1,c4,c4
Cihe Tud,Ovej@gmail.com,167-295-2251,Uyex Xaqu,Use@gmail.com,699-223-2679,11,CTE,yes,2,8,5,2,5,c1,c1,c4,c4
Vub Lofeba,Iranes@gmail.com,435-545-2726,Ugigam Ayiquogon,Xen@gmail.com,754-857-8576,11,charter,yes,7,9,1,1,3,c4,c4,c3,c4
Uhi Cofu,Xuja@gmail.com,348-965-7658,Oye Jigas,Ana@gmail.com,394-984-3476,11,private,yes,3,3,1,4,9,c4,c2,c1,c4
Pew Iquitom,Xey@gmail.com,793-687-6556,Peh Ada,Leb@gmail.com,599-996-5457,10,charter,no,6,4,6,1,2,c3,c1,c3,c4
Uja Atogak,Eyecox@gmail.com,771-519-4142,Say Osizuhi,Nizip@gmail.com,632-757-5129,11,public,yes,9,7,6,3,5,c2,c4,c4,c1
Oxep Gekal,Iko@gmail.com,463-118-1428,Ewa Nijifi,Olepuh@gmail.com,852-851-9936,10,public,no,8,2,6,6,5,c1,c3,c3,c4
Gud Oyo,Umap@gmail.com,229-161-7668,Cut Xixanav,Bav@gmail.com,386-975-3114,11,public,no,1,3,1,4,1,c2,c3,c2,c1
Ilu Yacobus,Zuyok@gmail.com,376-299-8249,Bet Uxihipuc,Duyu@gmail.com,174-659-9736,11,CTE,yes,1,0,7,1,6,c1,c2,c1,c3
Uci Xen,Aquduy@gmail.com,142-262-5639,Sug Fov,Uyoqu@gmail.com,752-942-5897,11,public,no,0,3,5,7,8,c3,c1,c4,c4
Dug Inasig,Apit@gmail.com,651-621-2642,Hol Odarunum,Hev@gmail.com,214-387-8763,11,private,no,5,6,2,6,0,c1,c2,c4,c3
Efax Mave,Iqu@gmail.com,583-599-6265,Sil Woziwi,Emu@gmail.com,542-147-8411,11,public,yes,4,2,8,2,4,c2,c2,c1,c2
Laj Dozota,Ufu@gmail.com,597-895-6546,Hid Ovaf,Duf@gmail.com,617-511-5837,10,public,no,4,7,2,9,6,c4,c4,c4,c3
Uze Afukev,Ujicip@gmail.com,132-692-6655,Zuh Coh,Sadeg@gmail.com,769-225-1317,10,charter,yes,6,7,8,5,4,c2,c2,c2,c4
Sah Ije,Rus@gmail.com,458-344-5331,Tex Yudaquoh,Kuv@gmail.com,719-331-5893,11,public,yes,5,5,1,1,1,c1,c1,c3,c4
Ezi Sek,Yufut@gmail.com,427-818-1265,Waz Ale,Cuqu@gmail.com,853-555-4917,11,charter,yes,7,5,6,9,2,c1,c4,c1,c3
Ipu Ojis,Ufeguh@gmail.com,625-997-3755,Moz Oroyow,Uxab@gmail.com,178-242-5432,11,charter,no,3,7,7,1,8,c3,c1,c4,c3
Pap Unutu,Sehih@gmail.com,279-624-5653,Orugec Otoyore,Akan@gmail.com,265-166-4776,11,public,no,6,2,6,6,2,c2,c1,c2,c2
Sogu Biri,Nuw@gmail.com,766-157-3624,Okege Lazov,Ikog@gmail.com,239-727-4289,11,charter,no,7,4,8,3,1,c1,c3,c1,c2
Akefo Imeh,Caf@gmail.com,162-833-2557,Puh Adaga,Quoqui@gmail.com,352-776-6944,11,private,yes,9,7,3,2,2,c3,c1,c1,c1
Axip Puheh,Ucunid@gmail.com,526-195-1375,Puy Kacu,Sek@gmail.com,117-476-6293,11,private,yes,7,7,3,9,1,c1,c2,c1,c2
Icat Alarun,Otud@gmail.com,568-982-3754,Uyus Ujuc,Onen@gmail.com,133-466-3176,10,charter,yes,6,9,9,7,9,c3,c1,c2,c2
Foz Wunuquid,Miqu@gmail.com,323-236-9661,Ajomu Ixuxucef,Epoje@gmail.com,293-148-7785,11,CTE,yes,1,4,2,7,6,c3,c4,c4,c4
Baj Puz,Equa@gmail.com,642-437-7721,Hudeb Esirerab,Fik@gmail.com,321-363-1244,11,private,no,3,4,2,2,4,c3,c2,c4,c4
Ozu Etoboh,Idadid@gmail.com,653-147-2867,Lupip Aseh,Ugi@gmail.com,435-482-8319,11,public,no,5,2,8,4,7,c3,c4,c3,c2
Aku Apiwer,Ava@gmail.com,431-814-3466,Otax Onoheru,Quiwo@gmail.com,966-614-7455,11,public,yes,5,0,8,9,8,c2,c2,c1,c1
Jus Nufe,Izoh@gmail.com,136-834-7235,Xop Bar,Upop@gmail.com,797-226-9916,11,public,yes,8,2,1,9,9,c3,c1,c3,c1